[{"OBJECT_NAME":"STARLINK-3335","OBJECT_ID":"2022-001D","EPOCH":"2026-03-09T13:10:41.253312","MEAN_MOTION":15.08834941,"ECCENTRICITY":0.00011913,"INCLINATION":53.218,"RA_OF_ASC_NODE":159.7568,"ARG_OF_PERICENTER":95.404,"MEAN_ANOMALY":264.7088,"EPHEMERIS_TYPE":0,"CLASSIFICATION_TYPE":"U","NORAD_CAT_ID":50806,"ELEMENT_SET_NO":999,"REV_AT_EPOCH":23052,"BSTAR":8.8792374e-5,"MEAN_MOTION_DOT":1.125e-5,"MEAN_MOTION_DDOT":0},{"OBJECT_NAME":"COSMOS 374 DEB","OBJECT_ID":"1970-089R","EPOCH":"2026-03-09T23:31:48.583488","MEAN_MOTION":14.77254595,"ECCENTRICITY":0.02111715,"INCLINATION":62.9169,"RA_OF_ASC_NODE":36.0296,"ARG_OF_PERICENTER":183.9757,"MEAN_ANOMALY":175.9665,"EPHEMERIS_TYPE":0,"CLASSIFICATION_TYPE":"U","NORAD_CAT_ID":4699,"ELEMENT_SET_NO":999,"REV_AT_EPOCH":69712,"BSTAR":0.00093271905,"MEAN_MOTION_DOT":9.446e-5,"MEAN_MOTION_DDOT":0}]
